#dP2022 10 21 12  0  0.00000000      96 __u+U ITR00 EXT  IAC
## 2232 475200.00000000   900.00000000 59873 0.5000000000000
+  117   C06C07C08C09C10C11C12C13C14C16C19C20C21C22C23C24C25
+        C26C27C28C29C30C32C33C34C35C36C37C38C39C40C41C42C43
+        C44C45C46E01E02E03E04E05E07E08E09E10E11E12E13E14E15
+        E18E19E24E25E26E27E30E31E33E34E36G01G02G03G04G05G06
+        G07G08G09G10G11G12G13G14G15G16G17G18G19G20G21G22G23
+        G24G25G26G27G28G29G30G31G32J02J03J04R01R02R03R04R05
+        R07R08R09R11R12R13R14R15R17R18R19R20R21R22R24  0  0
++        10 10 10  8  9  7  7  9  8 10  8 10  8 10  8  8  8
++         9  8  8  9  9  8  9  8  9  8  7 10  9 10  8  9  9
++         9  8  7  7  7  8  8  9  8  8  8  8  8  7  9  8  7
++        10  9  8  7 10  8  8  9  8  7  9  7  8  7  8  7  8
++         8  8  7  6  8  7  7  9  7  8  7  9  7  8  7  8  8
++         8  7  6  7  7  8  8  9  7 11 11  8  9  9  9  7  7
++         8  8 10  9  8  8  8  8  8  9 10 10  8 10  9  0  0
%c M  cc GPS ccc cccc cccc cccc cccc ccccc ccccc ccccc ccccc
%c cc cc ccc ccc cccc cccc cccc cccc ccccc ccccc ccccc ccccc
%f  0.0000000  0.000000000  0.00000000000  0.000000000000000
%f  0.0000000  0.000000000  0.00000000000  0.000000000000000
%i    0    0    0    0      0      0      0      0         0
%i    0    0    0    0      0      0      0      0         0
/* IAC                                ULTRA-RAPID PREDICTION
/* S/V CLOCKS ARE ALIGNED TO GNSS TIME                      
/* G:C1WC2W R:C1PC2P E:C1XC5X C:C2IC6I J:C1CC2S             
/* PCV:IGS14_2218 OL/AL:FES2004  NONE     YN ORB:CoN CLK:CoN
*  2022 10 21 15  0  0.00000000
PC06 -10295.444023  40546.234784  -4172.642859    888.677939
PC07  -4889.889454  28081.790840  31152.833381    324.985324
PC08 -19594.604712  24935.382225 -27893.295331    498.620351
PC09  -4461.159907  41193.762535   6529.284267   -828.538865
PC10   3529.700532  31005.887673  28850.374643     80.440752
PC11   7903.798964 -25152.931698  -9014.618974   -338.434197
PC12  14823.384823  -9890.557806 -21426.883339   -473.359967
PC13  -9931.301688  25752.812185 -31845.729117    112.764316
PC14   5581.070101 -15072.181316  22817.799230    588.042158
PC16 -12746.895659  39061.159901  -8619.538129    126.735683
PC19   4758.550980  19087.106745 -19783.755934   -927.341631
PC20 -13216.863592   9852.581150 -22510.074195    858.816475
PC21  24547.762489   6068.285932  11828.620532   -651.237583
PC22  20798.228666  17788.698885  -5519.334583   -838.171807
PC23 -12840.144378 -11251.970393 -22068.504259   -664.927469
PC24  22912.088891 -15300.269822  -4342.106319   -719.791855
PC25   5656.497065 -19076.518867 -19563.273343     12.964996
PC26  25083.970334  -4396.654848  11356.574741    -24.650491
PC27 -15899.075495   -200.094289  22915.940336     39.318663
PC28 -10769.951968 -19200.315173  17150.177213     26.869519
PC29   -283.874680  27903.849995   -412.253031     29.824289
PC30 -11795.248294  19263.234173  16373.268215      0.633500
PC32 -24607.484685  -5950.929132 -11728.605148   -750.062637
PC33  -4716.910832 -19044.088777  19835.808331   -930.413056
PC34  11329.948895 -20228.466268 -15550.122614     21.683024
PC35  10794.701400  20051.166989 -16117.532899     52.068370
PC36  -6763.104822  19049.920453  19267.820811   -795.625796
PC37 -24842.622964   2818.257047 -12408.634298   -580.357293
PC38 -25567.431291  26142.779798 -21137.667588     32.633455
PC39 -13425.258520  37362.099868 -13902.449724     -0.680629
PC40  -8738.149793  22172.583709  34807.814153     -6.480179
PC41 -20500.164379 -17944.335690   6090.622968   -195.282916
PC42  14323.252839  -9025.741938  22221.100855   -515.476164
PC43    881.042196 -27899.076984   -342.282264     20.772176
PC44  16045.387421   -164.424812 -22840.326101     88.651251
PC45  13099.771446  10931.839693  22081.289856    -12.560950
PC46 -22017.410253  16098.342191   6012.132331     -7.764176
PE01  28826.354848   4881.693116   4605.760107   -550.729558
PE02 -28891.660812  -4750.822887  -4409.753561    332.107170
PE03 -20215.683355  -9995.316353 -19178.222343   -612.004826
PE04  13571.196626 -10684.244661  24036.856155  -1141.462441
PE05 -15115.596881 -25283.885354  -2912.491062   -132.363654
PE07   1313.600088  25620.508253 -14775.385323   -715.062945
PE08 -13395.247670  10699.652087 -24137.808022   -619.111426
PE09  -1312.534084 -25493.369217  14969.374834   -701.116805
PE10  16513.447753 -24536.437056   -985.263404   -485.239532
PE11   9778.416713 -26302.958265   9414.763113   1688.387494
PE12  20256.241249 -18965.797367 -10312.835315   -234.294963
PE13 -10375.865311  26344.324593  -8635.387548    430.676823
PE14   3697.551108  28035.280994   6543.067436     34.081399
PE15 -20243.958592  18838.401823  10573.113940    712.612915
PE18   6900.944348 -21954.457263 -15890.425856   -835.494491
PE19  20117.629328  12734.810944  17582.131168  -4206.784196
PE24   6269.439460 -16128.870969 -24018.203449   -903.552261
PE25 -16934.751212 -14356.542027 -19569.581953   -590.741987
PE26   6261.546337  17756.756255 -22838.560840  -1753.118499
PE27  -5099.765066  16271.137968  24205.251270   -420.669016
PE30 -24750.783884   8151.707893  14053.848118   -934.354522
PE31  24176.382262  -8674.064561 -14693.005429   -506.267856
PE33  18100.770744   -266.005463 -23413.755470   -454.909110
PE34 -18187.431697    503.028388  23348.408827    -10.590480
PE36  -5484.187213 -18324.007959  22592.663018   -449.171202
PG01 -13318.233738  22194.205332  -5386.689979    263.997044
PG02  12236.275382 -23461.958390   3934.678775   -641.415872
PG03 -11045.600518  12607.842168 -20702.138361   -366.689042
PG04  -3454.394340  21458.756658 -15195.958343    -99.934352
PG05  21899.848677  -7111.721002  13166.763787   -101.250147
PG06  15259.682458   3441.720812 -21412.291169    497.462805
PG07   -264.632509  20291.049867  17294.153343    296.416000
PG08 -10187.349778  12911.849421  20736.817467    -89.947653
PG09   6467.523619  25141.968882  -5589.605292   -280.109360
PG10 -20557.698589 -11515.637127  12713.435669     -8.461528
PG11  20405.326739  -7234.242872 -15357.207836    -28.585216
PG12  12234.137202 -11901.585283 -20590.892440   -294.880259
PG13  14348.316932  -4239.471451  21769.826411    410.176871
PG14  18504.114036  13255.181027  13788.374144    -92.677097
PG15   8866.049925 -14441.253285  19944.683080    -19.048126
PG16 -25311.277897    142.134893   8505.974143   -526.481901
PG17  12683.545961  21876.879675  -7566.851114    670.824251
PG18   -189.702068 -19350.407710  18126.683187      6.763914
PG19  15769.007460  13499.879887 -16952.272529    226.786521
PG20  26420.041639   -824.810833    295.491791    476.559618
PG21 -17015.958458  19320.478090   5214.889493    157.620047
PG22 -16271.719714 -10684.810435 -17730.333217    349.810735
PG23 -10699.630373 -14598.615708  19474.285205     -1.095714
PG24  14079.518127 -22245.357680   -553.089466     91.174343
PG25   -780.728677 -15633.027101 -21768.711345    384.665968
PG26 -26384.498939  -3748.109718  -2271.085877    233.246796
PG27 -15691.808864     78.008729  21268.631715    194.094393
PG28  23708.070199  10099.731640   6357.417154    326.027754
PG29  -3304.558469 -25427.775034  -6799.588526   -561.361335
PG30   9902.315284  12631.182364  21228.163996   -537.175761
PG31 -16777.664997  -2591.957394 -20680.170028   -197.551596
PG32 -15553.792352 -19084.799684 -10067.947573   -270.464609
PJ02 -29451.950452  23484.122031  24003.645219     -7.782804
PJ03 -29731.341317  26706.691052  18508.793678     -3.246063
PJ04 -26674.057070  20228.371140 -20456.708553    112.016160
PR01  -7047.558893   8505.654480 -22998.883218     16.595923
PR02   9294.647848  18488.424252 -14830.917289    -23.070886
PR03  19114.129825  16748.578696   1804.805373     65.856469
PR04  17933.632343   5973.588951  17139.462349    161.984510
PR05   7060.577377  -8176.712242  23111.073268    101.593732
PR07 -19301.008807 -16534.393819  -2466.996725     42.927546
PR08 -17990.290437  -5801.157697 -17096.530533    -67.752844
PR09   1410.342600 -12121.402422 -22388.963768     83.243450
PR11 -24319.348872   4837.742996  -5943.392101     23.912137
PR12 -18613.903338  12091.522404  12613.656198     22.207601
PR13  -3166.224966  12190.220122  22170.520667    -28.043884
PR14  16099.320679   4705.437320  19238.864545     24.189371
PR15  24508.394335  -5054.096541   4974.655032     93.084052
PR17   6455.487732  13419.024978 -20713.314993    571.062488
PR18  11414.128337  -4269.733442 -22397.379622     48.155314
PR19  11326.483549 -18458.580881 -13464.207639   -208.101614
PR20   3708.382453 -24339.437137   6743.879856    -80.653271
PR21  -7033.529034 -11836.849595  21467.255928   -343.369626
PR22 -12080.498633   4444.055134  22049.201804     14.673646
PR24  -2546.099169  24322.719407  -7276.344227    121.669632
EOF
